NORAD_CAT_ID,OBJECT_NAME,OBJECT_TYPE,EPOCH,MEAN_MOTION,ECCENTRICITY,INCLINATION,RA_OF_ASC_NODE,ARG_OF_PERICENTER,MEAN_ANOMALY,BSTAR,MEAN_MOTION_DOT,MEAN_MOTION_DDOT,TLE_LINE0,TLE_LINE1,TLE_LINE2,SEMIMAJOR_AXIS,PERIOD,APOGEE,PERIGEE,DECAYED
55660.0,STARLINK-5467,PAYLOAD,2024-06-23 14:12:48,14.9913541,0.0002917,70.0005,297.9195,262.2047,97.8781,2.9423e-06,-5.8e-07,0.0,0 STARLINK-5467,1 55660U 23021AJ  24175.59223161 -.00000058  00000-0  29423-5 0  9997,2 55660  70.0005 297.9195 0002917 262.2047  97.8781 14.99135410 75807,6947.703,96.055,571.595,567.542,0.0
55660.0,STARLINK-5467,PAYLOAD,2024-06-23 17:24:58,14.99136847,0.0002893,70.0005,297.5826,262.381,97.7021,1.9352e-05,1.42e-06,0.0,0 STARLINK-5467,1 55660U 23021AJ  24175.72567841  .00000142  00000-0  19352-4 0  9990,2 55660  70.0005 297.5826 0002893 262.3810  97.7021 14.99136847 75526,6947.699,96.055,571.574,567.554,0.0
55660.0,STARLINK-5467,PAYLOAD,2024-06-24 14:14:02,14.99141016,0.0002986,70.0004,295.3927,262.2075,97.8746,3.8944e-05,3.81e-06,0.0,0 STARLINK-5467,1 55660U 23021AJ  24176.59308604  .00000381  00000-0  38944-4 0  9999,2 55660  70.0004 295.3927 0002986 262.2075  97.8746 14.99141016 75954,6947.686,96.055,571.626,567.476,0.0
55660.0,STARLINK-5467,PAYLOAD,2024-06-24 17:26:12,14.99142979,0.0002948,70.0005,295.056,260.8622,99.2204,6.0926e-05,6.49e-06,0.0,0 STARLINK-5467,1 55660U 23021AJ  24176.72653177  .00000649  00000-0  60926-4 0  9994,2 55660  70.0005 295.0560 0002948 260.8622  99.2204 14.99142979 75678,6947.68,96.055,571.593,567.497,0.0
55660.0,STARLINK-5467,PAYLOAD,2024-06-25 12:39:12,14.99138327,0.000289,70.0007,293.0358,256.4885,103.5953,-3.8016e-06,-1.4e-06,0.0,0 STARLINK-5467,1 55660U 23021AJ  24177.52722342 -.00000140  00000-0 -38016-5 0  9998,2 55660  70.0007 293.0358 0002890 256.4885 103.5953 14.99138327 75796,6947.694,96.055,571.567,567.551,0.0
55660.0,STARLINK-5467,PAYLOAD,2024-06-25 14:15:17,14.99137876,0.0002896,70.0008,292.8675,256.7654,103.3183,-9.7434e-06,-2.12e-06,0.0,0 STARLINK-5467,1 55660U 23021AJ  24177.59394788 -.00000212  00000-0 -97434-5 0  9993,2 55660  70.0008 292.8675 0002896 256.7654 103.3183 14.99137876 76106,6947.696,96.055,571.573,567.549,0.0
55660.0,STARLINK-5467,PAYLOAD,2024-06-25 17:27:26,14.99138032,0.0002913,70.0006,292.5305,258.918,101.1652,-9.4278e-06,-2.09e-06,0.0,0 STARLINK-5467,1 55660U 23021AJ  24177.72739583 -.00000209  00000-0 -94278-5 0  9993,2 55660  70.0006 292.5305 0002913 258.9180 101.1652 14.99138032 76123,6947.695,96.055,571.584,567.536,0.0
55660.0,STARLINK-5467,PAYLOAD,2024-06-26 11:04:21,14.99140443,0.0002876,70.0008,290.6775,257.6445,102.4393,-3.9285e-05,-5.72e-06,0.0,0 STARLINK-5467,1 55660U 23021AJ  24178.46135846 -.00000572  00000-0 -39285-4 0  9996,2 55660  70.0008 290.6775 0002876 257.6445 102.4393 14.99140443 76230,6947.688,96.055,571.551,567.555,0.0
55660.0,STARLINK-5467,PAYLOAD,2024-06-27 11:05:35,14.99139855,0.0003141,69.9999,288.1483,270.7944,89.2856,1.6414e-05,1.06e-06,0.0,0 STARLINK-5467,1 55660U 23021AJ  24179.46221644  .00000106  00000-0  16414-4 0  9999,2 55660  69.9999 288.1483 0003141 270.7944  89.2856 14.99139855 76084,6947.69,96.055,571.737,567.372,0.0
55660.0,STARLINK-5467,PAYLOAD,2024-06-27 17:29:55,14.99142745,0.0003201,69.9999,287.4746,270.6529,89.4263,3.7773e-05,3.67e-06,0.0,0 STARLINK-5467,1 55660U 23021AJ  24179.72910958  .00000367  00000-0  37773-4 0  9991,2 55660  69.9999 287.4746 0003201 270.6529  89.4263 14.99142745 76427,6947.681,96.055,571.77,567.322,0.0
55660.0,STARLINK-5467,PAYLOAD,2024-06-28 11:06:49,14.99139267,0.0003168,70.0001,285.6218,270.4534,89.6262,2.2681e-05,1.83e-06,0.0,0 STARLINK-5467,1 55660U 23021AJ  24180.46307571  .00000183  00000-0  22681-4 0  9993,2 55660  70.0001 285.6218 0003168 270.4534  89.6262 14.99139267 76239,6947.691,96.055,571.757,567.355,0.0
55660.0,STARLINK-5467,PAYLOAD,2024-06-28 14:18:59,14.99142855,0.0003223,69.9991,285.2847,272.5615,87.5175,3.9773e-05,3.91e-06,0.0,0 STARLINK-5467,1 55660U 23021AJ  24180.59652084  .00000391  00000-0  39773-4 0  9990,2 55660  69.9991 285.2847 0003223 272.5615  87.5175 14.99142855 76555,6947.68,96.055,571.785,567.306,0.0
55660.0,STARLINK-5467,PAYLOAD,2024-06-28 17:31:08,14.99156047,0.0003228,70.0003,284.9496,270.9916,89.0874,2.0544e-05,1.57e-06,0.0,0 STARLINK-5467,1 55660U 23021AJ  24180.72995916  .00000157  00000-0  20544-4 0  9995,2 55660  70.0003 284.9496 0003228 270.9916  89.0874 14.99156047 76279,6947.64,96.054,571.747,567.262,0.0
55660.0,STARLINK-5467,PAYLOAD,2024-06-28 23:55:28,14.9914236,0.0003524,70.0002,284.2743,269.8916,90.1839,-7.0639e-06,-1.8e-06,0.0,0 STARLINK-5467,1 55660U 23021AJ  24180.99686266 -.00000180  00000-0 -70639-5 0  9998,2 55660  70.0002 284.2743 0003524 269.8916  90.1839 14.99142360 76314,6947.682,96.055,571.995,567.099,0.0
55660.0,STARLINK-5467,PAYLOAD,2024-06-29 12:44:09,14.99130523,0.0002693,70.0003,282.9285,264.4434,95.6418,-0.0001088,-1.419e-05,0.0,0 STARLINK-5467,1 55660U 23021AJ  24181.53066844 -.00001419  00000-0 -10880-3 0  9999,2 55660  70.0003 282.9285 0002693 264.4434  95.6418 14.99130523 76392,6947.718,96.056,571.454,567.712,0.0
55660.0,STARLINK-5467,PAYLOAD,2024-06-29 14:20:14,14.99128255,0.0002747,70.0005,282.7606,263.2841,96.8006,-0.00012629,-1.632e-05,0.0,0 STARLINK-5467,1 55660U 23021AJ  24181.59739472 -.00001632  00000-0 -12629-3 0  9999,2 55660  70.0005 282.7606 0002747 263.2841  96.8006 14.99128255 76708,6947.725,96.056,571.499,567.682,0.0
55660.0,STARLINK-5467,PAYLOAD,2024-06-29 15:56:19,14.99129088,0.0002797,70.0003,282.5913,264.1569,95.9272,-0.00012766,-1.648e-05,0.0,0 STARLINK-5467,1 55660U 23021AJ  24181.66411831 -.00001648  00000-0 -12766-3 0  9992,2 55660  70.0003 282.5913 0002797 264.1569  95.9272 14.99129088 76718,6947.723,96.056,571.531,567.645,0.0
55660.0,STARLINK-5467,PAYLOAD,2024-06-30 11:09:18,14.99138963,0.0002909,70.0003,280.5704,267.0694,93.0132,1.4289e-05,8e-07,0.0,0 STARLINK-5467,1 55660U 23021AJ  24182.46479783  .00000080  00000-0  14289-4 0  9991,2 55660  70.0003 280.5704 0002909 267.0694  93.0132 14.99138963 76536,6947.692,96.055,571.578,567.536,0.0
55660.0,STARLINK-5467,PAYLOAD,2024-06-30 14:21:28,14.99143293,0.0002905,69.9998,280.2329,261.076,99.007,-3.1109e-05,-4.73e-06,0.0,0 STARLINK-5467,1 55660U 23021AJ  24182.59824381 -.00000473  00000-0 -31109-4 0  9991,2 55660  69.9998 280.2329 0002905 261.0760  99.0070 14.99143293 76854,6947.679,96.055,571.562,567.526,0.0
55660.0,STARLINK-5467,PAYLOAD,2024-06-30 15:57:33,14.99141887,0.0002867,70.0001,280.065,262.2981,97.7853,-1.8579e-05,-3.2e-06,0.0,0 STARLINK-5467,1 55660U 23021AJ  24182.66496837 -.00000320  00000-0 -18579-4 0  9997,2 55660  70.0001 280.0650 0002867 262.2981  97.7853 14.99141887 76864,6947.683,96.055,571.54,567.556,0.0
55660.0,STARLINK-5467,PAYLOAD,2024-06-30 23:57:57,14.9914875,0.0003446,69.9988,279.2214,272.8928,87.1837,-0.00010247,-1.342e-05,0.0,0 STARLINK-5467,1 55660U 23021AJ  24182.99858413 -.00001342  00000-0 -10247-3 0  9993,2 55660  69.9988 279.2214 0003446 272.8928  87.1837 14.99148750 76617,6947.662,96.055,571.921,567.133,0.0
55660.0,STARLINK-5467,PAYLOAD,2024-07-01 12:46:37,14.99134022,0.0002981,69.9995,277.8734,269.1753,90.9065,9.3619e-05,1.047e-05,0.0,0 STARLINK-5467,1 55660U 23021AJ  24183.53238298  .00001047  00000-0  93619-4 0  9992,2 55660  69.9995 277.8734 0002981 269.1753  90.9065 14.99134022 76694,6947.708,96.055,571.644,567.502,0.0
55660.0,STARLINK-5467,PAYLOAD,2024-07-01 14:22:42,14.99132929,0.0002947,69.9997,277.7055,267.285,92.7973,0.00011998,1.368e-05,0.0,0 STARLINK-5467,1 55660U 23021AJ  24183.59910702  .00001368  00000-0  11998-3 0  9990,2 55660  69.9997 277.7055 0002947 267.2850  92.7973 14.99132929 77008,6947.711,96.056,571.623,567.529,0.0
55660.0,STARLINK-5467,PAYLOAD,2024-07-01 15:58:47,14.99134333,0.0002893,69.9998,277.5371,266.2703,93.8126,0.00012638,1.446e-05,0.0,0 STARLINK-5467,1 55660U 23021AJ  24183.66583014  .00001446  00000-0  12638-3 0  9999,2 55660  69.9998 277.5371 0002893 266.2703  93.8126 14.99134333 77018,6947.707,96.055,571.582,567.562,0.0
55660.0,STARLINK-5467,PAYLOAD,2024-07-02 12:47:52,14.9914104,0.0002995,69.9993,275.346,268.5571,91.5245,-7.8851e-06,-1.9e-06,0.0,0 STARLINK-5467,1 55660U 23021AJ  24184.53324252 -.00000190  00000-0 -78851-5 0  9991,2 55660  69.9993 275.3460 0002995 268.5571  91.5245 14.99141040 76849,6947.686,96.055,571.632,567.47,0.0
55660.0,STARLINK-5467,PAYLOAD,2024-07-02 14:23:57,14.99141101,0.0002994,69.9993,275.1776,268.5755,91.5061,-6.3529e-06,-1.71e-06,0.0,0 STARLINK-5467,1 55660U 23021AJ  24184.59996631 -.00000171  00000-0 -63529-5 0  9998,2 55660  69.9993 275.1776 0002994 268.5755  91.5061 14.99141101 77159,6947.686,96.055,571.631,567.471,0.0
55660.0,STARLINK-5467,PAYLOAD,2024-07-02 16:00:01,14.99142182,0.0002986,69.9994,275.0091,268.5537,91.528,6.0412e-06,-2e-07,0.0,0 STARLINK-5467,1 55660U 23021AJ  24184.66668917 -.00000020  00000-0  60412-5 0  9999,2 55660  69.9994 275.0091 0002986 268.5537  91.5280 14.99142182 77162,6947.682,96.055,571.622,567.473,0.0
55660.0,STARLINK-5467,PAYLOAD,2024-07-03 12:49:06,14.99139962,0.0003109,69.9992,272.8202,270.9599,89.1205,6.522e-06,-1.4e-07,0.0,0 STARLINK-5467,1 55660U 23021AJ  24185.53410200 -.00000014  00000-0  65220-5 0  9991,2 55660  69.9992 272.8202 0003109 270.9599  89.1205 14.99139962 76994,6947.689,96.055,571.714,567.394,0.0
55660.0,STARLINK-5467,PAYLOAD,2024-07-03 16:01:16,14.99140386,0.0003084,69.9993,272.4833,271.0654,89.0152,9.2789e-06,1.9e-07,0.0,0 STARLINK-5467,1 55660U 23021AJ  24185.66754960  .00000019  00000-0  92789-5 0  9993,2 55660  69.9993 272.4833 0003084 271.0654  89.0152 14.99140386 77316,6947.688,96.055,571.696,567.41,0.0
55660.0,STARLINK-5467,PAYLOAD,2024-07-04 04:49:57,14.99033094,0.0003144,69.9995,271.1365,260.678,99.4024,0.0017056,0.00020693,0.0,0 STARLINK-5467,1 55660U 23021AJ  24186.20135828  .00020693  00000-0  17056-2 0  9991,2 55660  69.9995 271.1365 0003144 260.6780  99.4024 14.99033094 77090,6948.019,96.062,572.069,567.7,0.0
